[{"OBJECT_NAME":"ISS OBJECT XW","OBJECT_ID":"1998-067XW","EPOCH":"2026-04-27T03:44:15.512640","MEAN_MOTION":15.89886297,"ECCENTRICITY":0.00115245,"INCLINATION":51.6164,"RA_OF_ASC_NODE":175.1684,"ARG_OF_PERICENTER":1.0296,"MEAN_ANOMALY":359.0731,"EPHEMERIS_TYPE":0,"CLASSIFICATION_TYPE":"U","NORAD_CAT_ID":66910,"ELEMENT_SET_NO":999,"REV_AT_EPOCH":2283,"BSTAR":0.0014757772,"MEAN_MOTION_DOT":0.00450014,"MEAN_MOTION_DDOT":8.7068163e-5},{"OBJECT_NAME":"ISS OBJECT XY","OBJECT_ID":"1998-067XY","EPOCH":"2026-04-27T04:18:41.986368","MEAN_MOTION":15.74563279,"ECCENTRICITY":0.00082048,"INCLINATION":51.6235,"RA_OF_ASC_NODE":179.9147,"ARG_OF_PERICENTER":358.0489,"MEAN_ANOMALY":2.0477,"EPHEMERIS_TYPE":0,"CLASSIFICATION_TYPE":"U","NORAD_CAT_ID":66912,"ELEMENT_SET_NO":999,"REV_AT_EPOCH":2276,"BSTAR":0.001079361,"MEAN_MOTION_DOT":0.00163729,"MEAN_MOTION_DDOT":0},{"OBJECT_NAME":"KNACKSAT-2","OBJECT_ID":"1998-067XZ","EPOCH":"2026-04-26T06:09:00.396576","MEAN_MOTION":15.5563873,"ECCENTRICITY":0.00123624,"INCLINATION":51.6294,"RA_OF_ASC_NODE":194.7914,"ARG_OF_PERICENTER":5.5713,"MEAN_ANOMALY":354.5413,"EPHEMERIS_TYPE":0,"CLASSIFICATION_TYPE":"U","NORAD_CAT_ID":67683,"ELEMENT_SET_NO":999,"REV_AT_EPOCH":1218,"BSTAR":0.00063921905,"MEAN_MOTION_DOT":0.00044626,"MEAN_MOTION_DDOT":0},{"OBJECT_NAME":"CORAL","OBJECT_ID":"1998-067YA","EPOCH":"2026-04-26T15:51:37.742400","MEAN_MOTION":15.62793344,"ECCENTRICITY":0.00163582,"INCLINATION":51.6273,"RA_OF_ASC_NODE":190.7379,"ARG_OF_PERICENTER":0.5868,"MEAN_ANOMALY":359.5142,"EPHEMERIS_TYPE":0,"CLASSIFICATION_TYPE":"U","NORAD_CAT_ID":67684,"ELEMENT_SET_NO":999,"REV_AT_EPOCH":1227,"BSTAR":0.0012258888,"MEAN_MOTION_DOT":0.00114345,"MEAN_MOTION_DDOT":0},{"OBJECT_NAME":"GXIBA-1","OBJECT_ID":"1998-067YB","EPOCH":"2026-04-26T11:46:06.179520","MEAN_MOTION":15.56487871,"ECCENTRICITY":0.0014338,"INCLINATION":51.6291,"RA_OF_ASC_NODE":193.3546,"ARG_OF_PERICENTER":3.3425,"MEAN_ANOMALY":356.766,"EPHEMERIS_TYPE":0,"CLASSIFICATION_TYPE":"U","NORAD_CAT_ID":67685,"ELEMENT_SET_NO":999,"REV_AT_EPOCH":1222,"BSTAR":0.0007198225,"MEAN_MOTION_DOT":0.00052045,"MEAN_MOTION_DDOT":0},{"OBJECT_NAME":"UITMSAT-2","OBJECT_ID":"1998-067YC","EPOCH":"2026-04-26T13:55:12.614304","MEAN_MOTION":15.5812152,"ECCENTRICITY":0.0011322,"INCLINATION":51.6293,"RA_OF_ASC_NODE":192.456,"ARG_OF_PERICENTER":345.2259,"MEAN_ANOMALY":14.84,"EPHEMERIS_TYPE":0,"CLASSIFICATION_TYPE":"U","NORAD_CAT_ID":67686,"ELEMENT_SET_NO":999,"REV_AT_EPOCH":1224,"BSTAR":0.00084249,"MEAN_MOTION_DOT":0.00064861,"MEAN_MOTION_DDOT":0},{"OBJECT_NAME":"HMU-SAT2","OBJECT_ID":"1998-067YD","EPOCH":"2026-04-26T10:28:41.107296","MEAN_MOTION":15.56142237,"ECCENTRICITY":0.00104685,"INCLINATION":51.6295,"RA_OF_ASC_NODE":193.7497,"ARG_OF_PERICENTER":345.539,"MEAN_ANOMALY":14.53,"EPHEMERIS_TYPE":0,"CLASSIFICATION_TYPE":"U","NORAD_CAT_ID":67687,"ELEMENT_SET_NO":999,"REV_AT_EPOCH":1213,"BSTAR":0.00073680428,"MEAN_MOTION_DOT":0.00052493,"MEAN_MOTION_DDOT":0},{"OBJECT_NAME":"LEOPARD","OBJECT_ID":"1998-067YE","EPOCH":"2026-04-26T15:53:00.647520","MEAN_MOTION":15.57398595,"ECCENTRICITY":0.00109987,"INCLINATION":51.6299,"RA_OF_ASC_NODE":192.254,"ARG_OF_PERICENTER":345.7269,"MEAN_ANOMALY":14.341,"EPHEMERIS_TYPE":0,"CLASSIFICATION_TYPE":"U","NORAD_CAT_ID":67688,"ELEMENT_SET_NO":999,"REV_AT_EPOCH":1217,"BSTAR":0.00081781494,"MEAN_MOTION_DOT":0.00061213,"MEAN_MOTION_DDOT":0},{"OBJECT_NAME":"CREW DRAGON 12","OBJECT_ID":"2026-031A","EPOCH":"2026-04-27T04:01:32.075040","MEAN_MOTION":15.48984622,"ECCENTRICITY":0.00070425,"INCLINATION":51.6319,"RA_OF_ASC_NODE":192.6271,"ARG_OF_PERICENTER":355.6641,"MEAN_ANOMALY":4.4286,"EPHEMERIS_TYPE":0,"CLASSIFICATION_TYPE":"U","NORAD_CAT_ID":67796,"ELEMENT_SET_NO":999,"REV_AT_EPOCH":56401,"BSTAR":0.00020199612,"MEAN_MOTION_DOT":0.00010693,"MEAN_MOTION_DDOT":0},{"OBJECT_NAME":"PROGRESS-MS 33","OBJECT_ID":"2026-058A","EPOCH":"2026-04-27T04:01:32.075040","MEAN_MOTION":15.48984622,"ECCENTRICITY":0.00070425,"INCLINATION":51.6319,"RA_OF_ASC_NODE":192.6271,"ARG_OF_PERICENTER":355.6641,"MEAN_ANOMALY":4.4286,"EPHEMERIS_TYPE":0,"CLASSIFICATION_TYPE":"U","NORAD_CAT_ID":68319,"ELEMENT_SET_NO":999,"REV_AT_EPOCH":519,"BSTAR":0.00020199612,"MEAN_MOTION_DOT":0.00010693,"MEAN_MOTION_DDOT":0},{"OBJECT_NAME":"CYGNUS NG-24","OBJECT_ID":"2026-079A","EPOCH":"2026-04-27T04:01:32.075040","MEAN_MOTION":15.48984622,"ECCENTRICITY":0.00070425,"INCLINATION":51.6319,"RA_OF_ASC_NODE":192.6271,"ARG_OF_PERICENTER":355.6641,"MEAN_ANOMALY":4.4286,"EPHEMERIS_TYPE":0,"CLASSIFICATION_TYPE":"U","NORAD_CAT_ID":68689,"ELEMENT_SET_NO":999,"REV_AT_EPOCH":249,"BSTAR":0.00020199612,"MEAN_MOTION_DOT":0.00010693,"MEAN_MOTION_DDOT":0},{"OBJECT_NAME":"PROGRESS-MS 34","OBJECT_ID":"2026-093A","EPOCH":"2026-04-26T05:38:27.075840","MEAN_MOTION":15.81015064,"ECCENTRICITY":0.00100985,"INCLINATION":51.6342,"RA_OF_ASC_NODE":197.6499,"ARG_OF_PERICENTER":15.4664,"MEAN_ANOMALY":344.6644,"EPHEMERIS_TYPE":0,"CLASSIFICATION_TYPE":"U","NORAD_CAT_ID":68837,"ELEMENT_SET_NO":999,"REV_AT_EPOCH":2,"BSTAR":0.00020343117,"MEAN_MOTION_DOT":0.000401,"MEAN_MOTION_DDOT":0}]
